NORAD_CAT_ID,OBJECT_NAME,OBJECT_TYPE,EPOCH,MEAN_MOTION,ECCENTRICITY,INCLINATION,RA_OF_ASC_NODE,ARG_OF_PERICENTER,MEAN_ANOMALY,BSTAR,MEAN_MOTION_DOT,MEAN_MOTION_DDOT,TLE_LINE0,TLE_LINE1,TLE_LINE2,SEMIMAJOR_AXIS,PERIOD,APOGEE,PERIGEE,DECAYED
51768.0,STARLINK-3622,PAYLOAD,2024-03-01 09:00:21,15.08844332,0.0001471,53.2161,53.5416,99.0625,261.0533,6.4644e-05,7.41e-06,0.0,0 STARLINK-3622,1 51768U 22017A   24061.37525064  .00000741  00000-0  64644-4 0  9994,2 51768  53.2161  53.5416 0001471  99.0625 261.0533 15.08844332112580,6917.867,95.437,540.75,538.715,0.0
51768.0,STARLINK-3622,PAYLOAD,2024-03-01 16:57:17,15.08846256,0.0001499,53.2164,52.0547,95.9259,264.1904,7.4545e-05,8.99e-06,0.0,0 STARLINK-3622,1 51768U 22017A   24061.70644861  .00000899  00000-0  74545-4 0  9993,2 51768  53.2164  52.0547 0001499  95.9259 264.1904 15.08846256112640,6917.861,95.437,540.763,538.689,0.0
51768.0,STARLINK-3622,PAYLOAD,2024-03-02 05:40:21,15.08854871,0.0001578,53.2165,49.6754,90.9478,269.1695,0.00013179,1.811e-05,0.0,0 STARLINK-3622,1 51768U 22017A   24062.23636218  .00001811  00000-0  13179-3 0  9999,2 51768  53.2165  49.6754 0001578  90.9478 269.1695 15.08854871112722,6917.835,95.437,540.792,538.608,0.0
51768.0,STARLINK-3622,PAYLOAD,2024-03-03 05:31:09,15.08843786,0.0001474,53.2177,45.2146,96.1488,263.9672,3.4836e-05,2.67e-06,0.0,0 STARLINK-3622,1 51768U 22017A   24063.22996971  .00000267  00000-0  34836-4 0  9992,2 51768  53.2177  45.2146 0001474  96.1488 263.9672 15.08843786112872,6917.869,95.437,540.754,538.714,0.0
51768.0,STARLINK-3622,PAYLOAD,2024-03-04 05:21:55,15.08850648,0.0001742,53.2187,40.7587,112.9009,247.2167,6.0825e-06,-1.91e-06,0.0,0 STARLINK-3622,1 51768U 22017A   24064.22356445 -.00000191  00000-0  60825-5 0  9994,2 51768  53.2187  40.7587 0001742 112.9009 247.2167 15.08850648113012,6917.848,95.437,540.918,538.508,0.0
51768.0,STARLINK-3622,PAYLOAD,2024-03-05 03:37:21,15.08825895,0.0001424,53.2189,36.5939,109.8288,250.2857,4.1774e-07,-2.81e-06,0.0,0 STARLINK-3622,1 51768U 22017A   24065.15094449 -.00000281  00000-0  41774-6 0  9993,2 51768  53.2189  36.5939 0001424 109.8288 250.2857 15.08825895113161,6917.924,95.438,540.774,538.803,0.0
51768.0,STARLINK-3622,PAYLOAD,2024-03-05 06:48:08,15.08818737,0.000128,53.2185,35.9989,94.0828,266.031,-6.0045e-05,-1.243e-05,0.0,0 STARLINK-3622,1 51768U 22017A   24065.28343211 -.00001243  00000-0 -60045-4 0  9991,2 51768  53.2185  35.9989 0001280  94.0828 266.0310 15.08818737113177,6917.945,95.439,540.696,538.925,0.0
51768.0,STARLINK-3622,PAYLOAD,2024-03-06 03:28:08,15.08837144,0.0001141,53.2161,32.1267,81.2299,278.8822,0.00011788,1.589e-05,0.0,0 STARLINK-3622,1 51768U 22017A   24066.14454157  .00001589  00000-0  11788-3 0  9999,2 51768  53.2161  32.1267 0001141  81.2299 278.8822 15.08837144113313,6917.889,95.438,540.543,538.965,0.0
51768.0,STARLINK-3622,PAYLOAD,2024-03-06 06:38:54,15.08848002,0.0001241,53.2172,31.537,97.3559,262.7574,0.00029514,4.413e-05,0.0,0 STARLINK-3622,1 51768U 22017A   24066.27701798  .00004413  00000-0  29514-3 0  9994,2 51768  53.2172  31.5370 0001241  97.3559 262.7574 15.08848002113334,6917.856,95.437,540.579,538.862,0.0
51768.0,STARLINK-3622,PAYLOAD,2024-03-07 03:18:55,15.08846874,0.0001235,53.2172,27.6718,94.3214,265.7919,0.00038154,5.791e-05,0.0,0 STARLINK-3622,1 51768U 22017A   24067.13814137  .00005791  00000-0  38154-3 0  9992,2 51768  53.2172  27.6718 0001235  94.3214 265.7919 15.08846874113469,6917.859,95.437,540.579,538.87,0.0
51768.0,STARLINK-3622,PAYLOAD,2024-03-07 14:26:36,15.08858374,0.0001088,53.216,25.5893,88.4993,271.6123,0.00038271,5.811e-05,0.0,0 STARLINK-3622,1 51768U 22017A   24067.60181479  .00005811  00000-0  38271-3 0  9993,2 51768  53.2160  25.5893 0001088  88.4993 271.6123 15.08858374113529,6917.824,95.436,540.442,538.937,0.0
51768.0,STARLINK-3622,PAYLOAD,2024-03-08 03:09:42,15.08844588,0.0001527,53.2179,23.2075,93.4546,266.6621,3.7058e-05,3.02e-06,0.0,0 STARLINK-3622,1 51768U 22017A   24068.13173870  .00000302  00000-0  37058-4 0  9991,2 51768  53.2179  23.2075 0001527  93.4546 266.6621 15.08844588113613,6917.866,95.437,540.788,538.675,0.0
51768.0,STARLINK-3622,PAYLOAD,2024-03-08 14:17:23,15.08856569,0.0001414,53.2181,21.1242,101.9624,258.1527,0.00030073,4.504e-05,0.0,0 STARLINK-3622,1 51768U 22017A   24068.59541235  .00004504  00000-0  30073-3 0  9992,2 51768  53.2181  21.1242 0001414 101.9624 258.1527 15.08856569113675,6917.83,95.437,540.673,538.717,0.0
51768.0,STARLINK-3622,PAYLOAD,2024-03-09 03:00:29,15.08836129,0.0001279,53.2176,18.7479,98.8802,261.2335,-3.3689e-05,-8.24e-06,0.0,0 STARLINK-3622,1 51768U 22017A   24069.12533970 -.00000824  00000-0 -33689-4 0  9999,2 51768  53.2176  18.7479 0001279  98.8802 261.2335 15.08836129113766,6917.892,95.438,540.642,538.872,0.0
51768.0,STARLINK-3622,PAYLOAD,2024-03-09 14:08:11,15.08848416,0.0001467,53.218,16.6683,95.0833,265.0327,0.00024319,3.585e-05,0.0,0 STARLINK-3622,1 51768U 22017A   24069.58901668  .00003585  00000-0  24319-3 0  9996,2 51768  53.2180  16.6683 0001467  95.0833 265.0327 15.08848416113829,6917.855,95.437,540.735,538.705,0.0
51768.0,STARLINK-3622,PAYLOAD,2024-03-10 02:51:16,15.08837746,0.0001438,53.2207,14.2881,102.2193,257.896,9.0234e-05,1.148e-05,0.0,0 STARLINK-3622,1 51768U 22017A   24070.11894127  .00001148  00000-0  90234-4 0  9991,2 51768  53.2207  14.2881 0001438 102.2193 257.8960 15.08837746113917,6917.887,95.438,540.747,538.757,0.0
51768.0,STARLINK-3622,PAYLOAD,2024-03-10 06:02:02,15.08840881,0.0001593,53.219,13.694,95.9798,264.1376,8.1843e-05,1.015e-05,0.0,0 STARLINK-3622,1 51768U 22017A   24070.25142079  .00001015  00000-0  81843-4 0  9997,2 51768  53.2190  13.6940 0001593  95.9798 264.1376 15.08840881113925,6917.878,95.437,540.845,538.641,0.0
51768.0,STARLINK-3622,PAYLOAD,2024-03-11 02:42:03,15.08839318,0.0001599,53.2196,9.8289,99.1756,260.9418,0.00012392,1.685e-05,0.0,0 STARLINK-3622,1 51768U 22017A   24071.11254399  .00001685  00000-0  12392-3 0  9997,2 51768  53.2196   9.8289 0001599  99.1756 260.9418 15.08839318114059,6917.882,95.438,540.854,538.641,0.0
51768.0,STARLINK-3622,PAYLOAD,2024-03-11 20:11:18,15.08839005,0.0001543,53.2192,6.5581,101.6927,258.4238,0.00028401,4.235e-05,0.0,0 STARLINK-3622,1 51768U 22017A   24071.84118552  .00004235  00000-0  28401-3 0  9999,2 51768  53.2192   6.5581 0001543 101.6927 258.4238 15.08839005114170,6917.883,95.438,540.816,538.681,0.0
51768.0,STARLINK-3622,PAYLOAD,2024-03-12 18:26:42,15.08841852,0.0001361,53.2187,2.3969,95.111,265.0038,0.00010614,1.402e-05,0.0,0 STARLINK-3622,1 51768U 22017A   24072.76854344  .00001402  00000-0  10614-3 0  9997,2 51768  53.2187   2.3969 0001361  95.1110 265.0038 15.08841852114307,6917.875,95.437,540.681,538.798,0.0
51768.0,STARLINK-3622,PAYLOAD,2024-03-13 05:34:23,15.08846638,0.0001285,53.218,0.3143,83.2924,276.8214,0.00014797,2.068e-05,0.0,0 STARLINK-3622,1 51768U 22017A   24073.23222075  .00002068  00000-0  14797-3 0  9995,2 51768  53.2180   0.3143 0001285  83.2924 276.8214 15.08846638114389,6917.86,95.437,540.614,538.836,0.0
51768.0,STARLINK-3622,PAYLOAD,2024-03-13 11:55:55,15.08856346,0.0001367,53.219,359.1254,74.2762,285.8381,0.00027637,4.115e-05,0.0,0 STARLINK-3622,1 51768U 22017A   24073.49717535  .00004115  00000-0  27637-3 0  9995,2 51768  53.2190 359.1254 0001367  74.2762 285.8381 15.08856346114415,6917.83,95.437,540.641,538.75,0.0
51768.0,STARLINK-3622,PAYLOAD,2024-03-14 03:49:47,15.08841911,0.0001692,53.2189,356.1512,76.6765,283.4415,6.4941e-05,7.46e-06,0.0,0 STARLINK-3622,1 51768U 22017A   24074.15958291  .00000746  00000-0  64941-4 0  9991,2 51768  53.2189 356.1512 0001692  76.6765 283.4415 15.08841911114523,6917.875,95.437,540.91,538.569,0.0
51768.0,STARLINK-3622,PAYLOAD,2024-03-15 03:40:35,15.08839278,0.0001466,53.2182,351.6903,82.6535,277.4623,6.6761e-06,-1.82e-06,0.0,0 STARLINK-3622,1 51768U 22017A   24075.15318632 -.00000182  00000-0  66761-5 0  9999,2 51768  53.2182 351.6903 0001466  82.6535 277.4623 15.08839278114674,6917.883,95.438,540.762,538.733,0.0
51768.0,STARLINK-3622,PAYLOAD,2024-03-15 22:45:13,15.08834994,0.000158,53.2188,348.1195,75.3593,284.7574,0.00033871,5.106e-05,0.0,0 STARLINK-3622,1 51768U 22017A   24075.94807158  .00005106  00000-0  33871-3 0  9996,2 51768  53.2188 348.1195 0001580  75.3593 284.7574 15.08834994114782,6917.896,95.438,540.854,538.668,0.0
51768.0,STARLINK-3622,PAYLOAD,2024-03-16 03:31:22,15.088417,0.0001605,53.2188,347.2272,75.809,284.3081,0.00015202,2.132e-05,0.0,0 STARLINK-3622,1 51768U 22017A   24076.14678750  .00002132  00000-0  15202-3 0  9997,2 51768  53.2188 347.2272 0001605  75.8090 284.3081 15.08841700114819,6917.875,95.437,540.851,538.63,0.0
51768.0,STARLINK-3622,PAYLOAD,2024-03-16 21:00:36,15.08842221,0.0001361,53.2179,343.9558,95.3334,264.7813,0.00014621,2.04e-05,0.0,0 STARLINK-3622,1 51768U 22017A   24076.87542648  .00002040  00000-0  14621-3 0  9995,2 51768  53.2179 343.9558 0001361  95.3334 264.7813 15.08842221114933,6917.874,95.437,540.68,538.797,0.0
51768.0,STARLINK-3622,PAYLOAD,2024-03-16 22:35:59,15.08841788,0.0001323,53.2176,343.6585,100.1626,259.9515,0.0001361,1.879e-05,0.0,0 STARLINK-3622,1 51768U 22017A   24076.94166643  .00001879  00000-0  13610-3 0  9996,2 51768  53.2176 343.6585 0001323 100.1626 259.9515 15.08841788114936,6917.875,95.437,540.655,538.825,0.0
51768.0,STARLINK-3622,PAYLOAD,2024-03-17 03:22:09,15.08840944,0.0001351,53.2178,342.768,98.9005,261.2141,0.00010804,1.432e-05,0.0,0 STARLINK-3622,1 51768U 22017A   24077.14038694  .00001432  00000-0  10804-3 0  9990,2 51768  53.2178 342.7680 0001351  98.9005 261.2141 15.08840944114967,6917.878,95.437,540.677,538.808,0.0
51768.0,STARLINK-3622,PAYLOAD,2024-03-17 22:26:47,15.08841418,0.0001375,53.2183,339.1996,100.7353,259.3794,5.3222e-05,5.59e-06,0.0,0 STARLINK-3622,1 51768U 22017A   24077.93526724  .00000559  00000-0  53222-4 0  9994,2 51768  53.2183 339.1996 0001375 100.7353 259.3794 15.08841418115080,6917.876,95.437,540.692,538.79,0.0
